NORAD_CAT_ID,OBJECT_NAME,OBJECT_TYPE,EPOCH,MEAN_MOTION,ECCENTRICITY,INCLINATION,RA_OF_ASC_NODE,ARG_OF_PERICENTER,MEAN_ANOMALY,BSTAR,MEAN_MOTION_DOT,MEAN_MOTION_DDOT,TLE_LINE0,TLE_LINE1,TLE_LINE2,SEMIMAJOR_AXIS,PERIOD,APOGEE,PERIGEE,DECAYED
53001.0,STARLINK-4190,PAYLOAD,2023-08-14 01:10:48,15.0884121,9.59e-05,53.2184,347.8444,91.8933,268.2169,-1.1493e-05,-4.71e-06,0.0,0 STARLINK-4190,1 53001U 22076R   23226.04917258 -.00000471  00000-0 -11493-4 0  9993,2 53001  53.2184 347.8444 0000959  91.8933 268.2169 15.08841210 61612,6917.877,95.437,540.405,539.078,0.0
53001.0,STARLINK-4190,PAYLOAD,2023-08-15 16:55:26,15.08848392,0.0001131,53.2189,340.4087,83.3407,276.7714,0.00019225,2.774e-05,0.0,0 STARLINK-4190,1 53001U 22076R   23227.70516720  .00002774  00000-0  19225-3 0  9992,2 53001  53.2189 340.4087 0001131  83.3407 276.7714 15.08848392 61869,6917.855,95.437,540.502,538.937,0.0
53001.0,STARLINK-4190,PAYLOAD,2023-08-16 07:13:55,15.08836736,0.0001424,53.2168,337.7361,80.2205,279.8948,4.9311e-05,4.97e-06,0.0,0 STARLINK-4190,1 53001U 22076R   23228.30133681  .00000497  00000-0  49311-4 0  9990,2 53001  53.2168 337.7361 0001424  80.2205 279.8948 15.08836736 61959,6917.89,95.438,540.74,538.77,0.0
53001.0,STARLINK-4190,PAYLOAD,2023-08-17 10:15:28,15.08843928,0.0001163,53.2176,332.6797,82.8182,277.2942,0.00016348,2.315e-05,0.0,0 STARLINK-4190,1 53001U 22076R   23229.42741345  .00002315  00000-0  16348-3 0  9990,2 53001  53.2176 332.6797 0001163  82.8182 277.2942 15.08843928 62124,6917.868,95.437,540.538,538.929,0.0
53001.0,STARLINK-4190,PAYLOAD,2023-08-18 10:06:15,15.08838203,0.0001045,53.2174,328.2187,89.3533,270.7578,0.00012538,1.708e-05,0.0,0 STARLINK-4190,1 53001U 22076R   23230.42101652  .00001708  00000-0  12538-3 0  9995,2 53001  53.2174 328.2187 0001045  89.3533 270.7578 15.08838203 62276,6917.886,95.438,540.474,539.028,0.0
53001.0,STARLINK-4190,PAYLOAD,2023-08-19 11:32:25,15.08842848,0.000106,53.2169,323.4615,98.1223,261.989,0.00013549,1.869e-05,0.0,0 STARLINK-4190,1 53001U 22076R   23231.48085368  .00001869  00000-0  13549-3 0  9998,2 53001  53.2169 323.4615 0001060  98.1223 261.9890 15.08842848 62431,6917.872,95.437,540.47,539.003,0.0
53001.0,STARLINK-4190,PAYLOAD,2023-08-20 01:50:54,15.08833975,0.0001089,53.217,320.7871,91.2656,268.8461,5.3312e-05,5.61e-06,0.0,0 STARLINK-4190,1 53001U 22076R   23232.07701896  .00000561  00000-0  53312-4 0  9996,2 53001  53.2170 320.7871 0001089  91.2656 268.8461 15.08833975 62523,6917.899,95.438,540.517,539.01,0.0
53001.0,STARLINK-4190,PAYLOAD,2023-08-21 12:49:23,15.08842634,0.000114,53.217,314.2442,97.1075,263.0047,0.00012677,1.73e-05,0.0,0 STARLINK-4190,1 53001U 22076R   23233.53429754  .00001730  00000-0  12677-3 0  9995,2 53001  53.2170 314.2442 0001140  97.1075 263.0047 15.08842634 62746,6917.872,95.437,540.526,538.949,0.0
53001.0,STARLINK-4190,PAYLOAD,2023-08-22 11:04:47,15.0883976,0.0001211,53.2174,310.0794,77.0545,283.0582,0.00013346,1.837e-05,0.0,0 STARLINK-4190,1 53001U 22076R   23234.46166117  .00001837  00000-0  13346-3 0  9991,2 53001  53.2174 310.0794 0001211  77.0545 283.0582 15.08839760 62889,6917.881,95.438,540.584,538.908,0.0
53001.0,STARLINK-4190,PAYLOAD,2023-08-23 12:30:57,15.08843539,0.0001171,53.217,305.3235,83.2594,276.8531,8.2908e-05,1.032e-05,0.0,0 STARLINK-4190,1 53001U 22076R   23235.52150153  .00001032  00000-0  82908-4 0  9990,2 53001  53.2170 305.3235 0001171  83.2594 276.8531 15.08843539 63042,6917.87,95.437,540.545,538.924,0.0
53001.0,STARLINK-4190,PAYLOAD,2023-08-24 10:46:22,15.08835752,0.0001191,53.2175,301.158,105.1572,254.9552,-3.0265e-05,-7.69e-06,0.0,0 STARLINK-4190,1 53001U 22076R   23236.44887031 -.00000769  00000-0 -30265-4 0  9991,2 53001  53.2175 301.1580 0001191 105.1572 254.9552 15.08835752 62717,6917.893,95.438,540.582,538.934,0.0
53001.0,STARLINK-4190,PAYLOAD,2023-08-25 10:37:09,15.08840352,0.0001335,53.2168,296.7004,80.657,279.4573,8.5938e-05,1.08e-05,0.0,0 STARLINK-4190,1 53001U 22076R   23237.44247031  .00001080  00000-0  85938-4 0  9994,2 53001  53.2168 296.7004 0001335  80.6570 279.4573 15.08840352 62867,6917.879,95.438,540.668,538.821,0.0
53001.0,STARLINK-4190,PAYLOAD,2023-08-26 10:27:56,15.08850213,0.0001371,53.216,292.239,80.78,279.3347,0.0004061,6.183e-05,0.0,0 STARLINK-4190,1 53001U 22076R   23238.43606875  .00006183  00000-0  40610-3 0  9995,2 53001  53.2160 292.2390 0001371  80.7800 279.3347 15.08850213 63018,6917.849,95.437,540.663,538.766,0.0
53001.0,STARLINK-4190,PAYLOAD,2023-08-27 03:57:10,15.08845029,0.0001424,53.2156,288.9681,79.4947,280.6206,0.00011512,1.545e-05,0.0,0 STARLINK-4190,1 53001U 22076R   23239.16470881  .00001545  00000-0  11512-3 0  9998,2 53001  53.2156 288.9681 0001424  79.4947 280.6206 15.08845029 63595,6917.865,95.437,540.715,538.745,0.0
53001.0,STARLINK-4190,PAYLOAD,2023-08-27 08:43:20,15.08846797,0.0001429,53.2157,288.0762,78.4354,281.6799,0.00011966,1.617e-05,0.0,0 STARLINK-4190,1 53001U 22076R   23239.36342716  .00001617  00000-0  11966-3 0  9998,2 53001  53.2157 288.0762 0001429  78.4354 281.6799 15.08846797 63156,6917.86,95.437,540.713,538.736,0.0
53001.0,STARLINK-4190,PAYLOAD,2023-08-27 10:18:43,15.08848294,0.0001427,53.2157,287.7787,79.5398,280.5755,0.00013219,1.817e-05,0.0,0 STARLINK-4190,1 53001U 22076R   23239.42966582  .00001817  00000-0  13219-3 0  9993,2 53001  53.2157 287.7787 0001427  79.5398 280.5755 15.08848294 63162,6917.855,95.437,540.707,538.733,0.0
53001.0,STARLINK-4190,PAYLOAD,2023-08-28 10:09:30,15.0884258,0.0001563,53.2173,283.3199,103.3501,256.7665,-2.4123e-05,-6.72e-06,0.0,0 STARLINK-4190,1 53001U 22076R   23240.42326809 -.00000672  00000-0 -24123-4 0  9994,2 53001  53.2173 283.3199 0001563 103.3501 256.7665 15.08842580 63787,6917.873,95.437,540.819,538.656,0.0
53001.0,STARLINK-4190,PAYLOAD,2023-08-28 19:41:49,15.08842044,0.0001436,53.2169,281.5347,96.8402,263.2753,8.1148e-06,-1.59e-06,0.0,0 STARLINK-4190,1 53001U 22076R   23240.82070666 -.00000159  00000-0  81148-5 0  9995,2 53001  53.2169 281.5347 0001436  96.8402 263.2753 15.08842044 63373,6917.874,95.437,540.733,538.746,0.0
53001.0,STARLINK-4190,PAYLOAD,2023-08-29 11:35:40,15.08839531,0.00014,53.2166,278.5605,94.3412,265.774,1.2353e-05,-9.1e-07,0.0,0 STARLINK-4190,1 53001U 22076R   23241.48310858 -.00000091  00000-0  12353-4 0  9994,2 53001  53.2166 278.5605 0001400  94.3412 265.7740 15.08839531 63941,6917.882,95.438,540.715,538.778,0.0
53001.0,STARLINK-4190,PAYLOAD,2023-08-30 19:23:23,15.08839901,0.0001351,53.2159,272.6111,87.5452,272.5694,6.2273e-05,7.03e-06,0.0,0 STARLINK-4190,1 53001U 22076R   23242.80790906  .00000703  00000-0  62273-4 0  9992,2 53001  53.2159 272.6111 0001351  87.5452 272.5694 15.08839901 63678,6917.881,95.438,540.68,538.811,0.0
53001.0,STARLINK-4190,PAYLOAD,2023-08-31 01:44:55,15.08838834,0.0001406,53.2158,271.4219,86.0805,274.0348,9.0077e-05,1.146e-05,0.0,0 STARLINK-4190,1 53001U 22076R   23243.07286937  .00001146  00000-0  90077-4 0  9991,2 53001  53.2158 271.4219 0001406  86.0805 274.0348 15.08838834 64184,6917.884,95.438,540.722,538.776,0.0
53001.0,STARLINK-4190,PAYLOAD,2023-09-01 07:57:15,15.08841878,0.0001395,53.2164,265.7718,85.8446,274.2706,5.7588e-05,6.29e-06,0.0,0 STARLINK-4190,1 53001U 22076R   23244.33142939  .00000629  00000-0  57588-4 0  9999,2 53001  53.2164 265.7718 0001395  85.8446 274.2706 15.08841878 64379,6917.875,95.437,540.705,538.775,0.0
53001.0,STARLINK-4190,PAYLOAD,2023-09-01 19:04:57,15.08842621,0.0001402,53.2162,263.6906,84.5733,275.5419,5.1731e-05,5.36e-06,0.0,0 STARLINK-4190,1 53001U 22076R   23244.79510858  .00000536  00000-0  51731-4 0  9999,2 53001  53.2162 263.6906 0001402  84.5733 275.5419 15.08842621 63974,6917.872,95.437,540.707,538.767,0.0
53001.0,STARLINK-4190,PAYLOAD,2023-09-02 07:48:02,15.08833291,0.0001304,53.2151,261.3102,95.3579,264.7562,0.00023319,3.425e-05,0.0,0 STARLINK-4190,1 53001U 22076R   23245.32502993  .00003425  00000-0  23319-3 0  9990,2 53001  53.2151 261.3102 0001304  95.3579 264.7562 15.08833291 64056,6917.901,95.438,540.668,538.864,0.0
53001.0,STARLINK-4190,PAYLOAD,2023-09-03 07:38:49,15.08840863,0.0001259,53.2162,256.8504,91.592,268.5216,5.3078e-05,5.57e-06,0.0,0 STARLINK-4190,1 53001U 22076R   23246.31862911  .00000557  00000-0  53078-4 0  9998,2 53001  53.2162 256.8504 0001259  91.5920 268.5216 15.08840863 64208,6917.878,95.438,540.614,538.872,0.0
53001.0,STARLINK-4190,PAYLOAD,2023-09-03 17:11:08,15.08837382,0.0001245,53.2155,255.0661,90.8359,269.2776,-1.4006e-06,-3.1e-06,0.0,0 STARLINK-4190,1 53001U 22076R   23246.71607278 -.00000310  00000-0 -14006-5 0  9993,2 53001  53.2155 255.0661 0001245  90.8359 269.2776 15.08837382 64737,6917.888,95.438,540.615,538.892,0.0
53001.0,STARLINK-4190,PAYLOAD,2023-09-04 07:29:37,15.08834841,0.0001276,53.2157,252.3902,92.0273,268.0865,-1.1598e-05,-4.72e-06,0.0,0 STARLINK-4190,1 53001U 22076R   23247.31223628 -.00000472  00000-0 -11598-4 0  9994,2 53001  53.2157 252.3902 0001276  92.0273 268.0865 15.08834841 64351,6917.896,95.438,540.644,538.878,0.0
53001.0,STARLINK-4190,PAYLOAD,2023-09-05 00:58:51,15.08833733,0.0001315,53.2163,249.1196,93.1819,266.9324,2.3574e-05,8.7e-07,0.0,0 STARLINK-4190,1 53001U 22076R   23248.04087846  .00000087  00000-0  23574-4 0  9992,2 53001  53.2163 249.1196 0001315  93.1819 266.9324 15.08833733 64939,6917.9,95.438,540.674,538.855,0.0
53001.0,STARLINK-4190,PAYLOAD,2023-09-06 00:49:38,15.08835869,0.0001303,53.2164,244.6592,97.4579,262.6561,8.3417e-05,1.04e-05,0.0,0 STARLINK-4190,1 53001U 22076R   23249.03447842  .00001040  00000-0  83417-4 0  9990,2 53001  53.2164 244.6592 0001303  97.4579 262.6561 15.08835869 64610,6917.893,95.438,540.659,538.857,0.0
53001.0,STARLINK-4190,PAYLOAD,2023-09-06 16:43:30,15.08841181,0.0001275,53.2167,241.6846,91.2847,268.8291,9.2363e-05,1.182e-05,0.0,0 STARLINK-4190,1 53001U 22076R   23249.69687604  .00001182  00000-0  92363-4 0  9991,2 53001  53.2167 241.6846 0001275  91.2847 268.8291 15.08841181 65185,6917.877,95.437,540.624,538.86,0.0
